NORAD_CAT_ID,OBJECT_NAME,OBJECT_TYPE,EPOCH,MEAN_MOTION,ECCENTRICITY,INCLINATION,RA_OF_ASC_NODE,ARG_OF_PERICENTER,MEAN_ANOMALY,BSTAR,MEAN_MOTION_DOT,MEAN_MOTION_DDOT,TLE_LINE0,TLE_LINE1,TLE_LINE2,SEMIMAJOR_AXIS,PERIOD,APOGEE,PERIGEE,DECAYED
53855.0,STARLINK-4703,PAYLOAD,2023-01-19 10:42:44,15.08842692,0.0001349,53.22,34.9675,92.0135,268.1012,0.00037944,5.756e-05,0.0,0 STARLINK-4703,1 53855U 22114AP  23019.44634472  .00005756  00000-0  37944-3 0  9998,2 53855  53.2200  34.9675 0001349  92.0135 268.1012 15.08842692 19545,6917.871999999999,95.437,540.67,538.804,0.0
53855.0,STARLINK-4703,PAYLOAD,2023-01-20 07:22:45,15.0884609,0.0001422,53.2199,31.1031,91.7717,268.3438,-0.00010333,-1.932e-05,0.0,0 STARLINK-4703,1 53855U 22114AP  23020.30747386 -.00001932  00000-0 -10333-3 0  9991,2 53855  53.2199  31.1031 0001422  91.7717 268.3438 15.08846090 19675,6917.861999999999,95.437,540.71,538.743,0.0
53855.0,STARLINK-4703,PAYLOAD,2023-01-21 10:24:18,15.08851389,0.0001323,53.2203,26.049,94.7145,265.3998,5.2581e-05,5.49e-06,0.0,0 STARLINK-4703,1 53855U 22114AP  23021.43354463  .00000549  00000-0  52581-4 0  9999,2 53855  53.2203  26.0490 0001323  94.7145 265.3998 15.08851389 19845,6917.846,95.437,540.626,538.795,0.0
53855.0,STARLINK-4703,PAYLOAD,2023-01-21 16:45:51,15.08844048,0.0001324,53.2203,24.8582,86.8933,273.2211,-1.2837e-05,-4.92e-06,0.0,0 STARLINK-4703,1 53855U 22114AP  23021.69851082 -.00000492  00000-0 -12837-4 0  9995,2 53855  53.2203  24.8582 0001324  86.8933 273.2211 15.08844048 19885,6917.868,95.437,540.649,538.817,0.0
53855.0,STARLINK-4703,PAYLOAD,2023-01-22 16:36:38,15.08836518,0.0001255,53.2206,20.4013,109.2871,250.8257,0.00010335,1.357e-05,0.0,0 STARLINK-4703,1 53855U 22114AP  23022.69211413  .00001357  00000-0  10335-3 0  9993,2 53855  53.2206  20.4013 0001255 109.2871 250.8257 15.08836518 20036,6917.891,95.438,540.624,538.888,0.0
53855.0,STARLINK-4703,PAYLOAD,2023-01-23 00:33:35,15.08829419,0.0001236,53.2203,18.9124,104.6614,255.4515,-6.1079e-05,-1.259e-05,0.0,0 STARLINK-4703,1 53855U 22114AP  23023.02332525 -.00001259  00000-0 -61079-4 0  9994,2 53855  53.2203  18.9124 0001236 104.6614 255.4515 15.08829419 20086,6917.9130000000005,95.438,540.633,538.923,0.0
53855.0,STARLINK-4703,PAYLOAD,2023-01-23 08:30:30,15.08842931,0.0001365,53.2202,17.4259,115.0359,245.0775,6.2852e-05,7.13e-06,0.0,0 STARLINK-4703,1 53855U 22114AP  23023.35451475  .00000713  00000-0  62852-4 0  9998,2 53855  53.2202  17.4259 0001365 115.0359 245.0775 15.08842931 20136,6917.871,95.437,540.681,538.7919999999999,0.0
53855.0,STARLINK-4703,PAYLOAD,2023-01-24 16:18:13,15.08834954,0.0001192,53.2191,11.4811,104.9295,255.1829,6.534e-05,7.52e-06,0.0,0 STARLINK-4703,1 53855U 22114AP  23024.67932098  .00000752  00000-0  65340-4 0  9997,2 53855  53.2191  11.4811 0001192 104.9295 255.1829 15.08834954 20335,6917.896,95.438,540.585,538.936,0.0
53855.0,STARLINK-4703,PAYLOAD,2023-01-25 06:36:41,15.08846138,0.0001262,53.2195,8.7997,116.4315,243.6806,0.00028085,4.185e-05,0.0,0 STARLINK-4703,1 53855U 22114AP  23025.27547832  .00004185  00000-0  28085-3 0  9990,2 53855  53.2195   8.7997 0001262 116.4315 243.6806 15.08846138 20426,6917.861999999999,95.437,540.6,538.854,0.0
53855.0,STARLINK-4703,PAYLOAD,2023-01-25 16:09:00,15.08839944,0.000125,53.219,7.0146,116.6302,243.4818,0.0001652,2.342e-05,0.0,0 STARLINK-4703,1 53855U 22114AP  23025.67292162  .00002342  00000-0  16520-3 0  9991,2 53855  53.2190   7.0146 0001250 116.6302 243.4818 15.08839944 20488,6917.880999999999,95.438,540.61,538.881,0.0
53855.0,STARLINK-4703,PAYLOAD,2023-01-26 03:16:42,15.08845128,0.0001102,53.2196,4.9364,110.2378,249.8733,0.00035128,5.308e-05,0.0,0 STARLINK-4703,1 53855U 22114AP  23026.13660136  .00005308  00000-0  35128-3 0  9993,2 53855  53.2196   4.9364 0001102 110.2378 249.8733 15.08845128 21096,6917.865,95.437,540.492,538.967,0.0
53855.0,STARLINK-4703,PAYLOAD,2023-01-26 17:35:10,15.08845248,0.0001059,53.2198,2.2615,99.1485,260.9627,0.00019215,2.772e-05,0.0,0 STARLINK-4703,1 53855U 22114AP  23026.73276053  .00002772  00000-0  19215-3 0  9991,2 53855  53.2198   2.2615 0001059  99.1485 260.9627 15.08845248 20642,6917.8640000000005,95.437,540.462,538.997,0.0
53855.0,STARLINK-4703,PAYLOAD,2023-01-27 07:53:38,15.08852602,0.0001214,53.219,359.5845,81.4361,278.6769,0.00030175,4.519e-05,0.0,0 STARLINK-4703,1 53855U 22114AP  23027.32891796  .00004519  00000-0  30175-3 0  9993,2 53855  53.2190 359.5845 0001214  81.4361 278.6769 15.08852602 21272,6917.842,95.437,540.547,538.867,0.0
53855.0,STARLINK-4703,PAYLOAD,2023-01-27 17:25:57,15.08839163,0.0001291,53.2191,357.7997,107.3183,252.7951,4.9926e-05,5.07e-06,0.0,0 STARLINK-4703,1 53855U 22114AP  23027.72636214  .00000507  00000-0  49926-4 0  9997,2 53855  53.2191 357.7997 0001291 107.3183 252.7951 15.08839163 20795,6917.883000000001,95.438,540.641,538.855,0.0
53855.0,STARLINK-4703,PAYLOAD,2023-01-28 04:33:39,15.08850445,0.0001132,53.2193,355.7197,86.4132,273.6989,0.00034015,5.131e-05,0.0,0 STARLINK-4703,1 53855U 22114AP  23028.19003944  .00005131  00000-0  34015-3 0  9997,2 53855  53.2193 355.7197 0001132  86.4132 273.6989 15.08850445 20869,6917.848,95.437,540.497,538.93,0.0
53855.0,STARLINK-4703,PAYLOAD,2023-01-28 20:27:31,15.08840265,0.0001118,53.2189,352.7471,78.3726,281.7392,7.6714e-05,9.33e-06,0.0,0 STARLINK-4703,1 53855U 22114AP  23028.85244216  .00000933  00000-0  76714-4 0  9997,2 53855  53.2189 352.7471 0001118  78.3726 281.7392 15.08840265 21508,6917.88,95.438,540.518,538.971,0.0
53855.0,STARLINK-4703,PAYLOAD,2023-01-28 22:02:54,15.08841905,0.0001095,53.2187,352.4499,78.6684,281.4431,0.00010725,1.42e-05,0.0,0 STARLINK-4703,1 53855U 22114AP  23028.91868212  .00001420  00000-0  10725-3 0  9993,2 53855  53.2187 352.4499 0001095  78.6684 281.4431 15.08841905 20976,6917.875,95.437,540.497,538.982,0.0
53855.0,STARLINK-4703,PAYLOAD,2023-01-29 20:18:18,15.0883083,0.0001156,53.2185,348.2864,93.2554,266.8571,-5.7336e-05,-1.2e-05,0.0,0 STARLINK-4703,1 53855U 22114AP  23029.84604520 -.00001200  00000-0 -57336-4 0  9994,2 53855  53.2185 348.2864 0001156  93.2554 266.8571 15.08830830 21114,6917.908,95.438,540.573,538.974,0.0
53855.0,STARLINK-4703,PAYLOAD,2023-01-30 05:50:37,15.08839501,0.0001098,53.2191,346.5021,96.6904,263.4213,3.4554e-05,2.62e-06,0.0,0 STARLINK-4703,1 53855U 22114AP  23030.24348424  .00000262  00000-0  34554-4 0  9990,2 53855  53.2191 346.5021 0001098  96.6904 263.4213 15.08839501 21714,6917.882,95.438,540.506,538.987,0.0
53855.0,STARLINK-4703,PAYLOAD,2023-01-30 20:09:05,15.08841555,0.0001132,53.2192,343.8261,89.0953,271.0169,0.00011002,1.464e-05,0.0,0 STARLINK-4703,1 53855U 22114AP  23030.83964266  .00001464  00000-0  11002-3 0  9990,2 53855  53.2192 343.8261 0001132  89.0953 271.0169 15.08841555 21807,6917.876,95.437,540.524,538.958,0.0
53855.0,STARLINK-4703,PAYLOAD,2023-01-30 21:44:28,15.08843296,0.0001137,53.2192,343.5285,93.2163,266.8959,0.000133,1.83e-05,0.0,0 STARLINK-4703,1 53855U 22114AP  23030.90588152  .00001830  00000-0  13300-3 0  9994,2 53855  53.2192 343.5285 0001137  93.2163 266.8959 15.08843296 21279,6917.87,95.437,540.522,538.949,0.0
53855.0,STARLINK-4703,PAYLOAD,2023-01-31 05:41:23,15.08853505,0.0001192,53.2182,342.0412,94.4092,265.7036,0.00025674,3.802e-05,0.0,0 STARLINK-4703,1 53855U 22114AP  23031.23707499  .00003802  00000-0  25674-3 0  9996,2 53855  53.2182 342.0412 0001192  94.4092 265.7036 15.08853505 21323,6917.839,95.437,540.529,538.88,0.0
53855.0,STARLINK-4703,PAYLOAD,2023-01-31 21:35:15,15.08843109,0.0001257,53.2182,339.0681,86.2635,273.8501,0.00023175,3.403e-05,0.0,0 STARLINK-4703,1 53855U 22114AP  23031.89948105  .00003403  00000-0  23175-3 0  9990,2 53855  53.2182 339.0681 0001257  86.2635 273.8501 15.08843109 21967,6917.871,95.437,540.605,538.866,0.0
53855.0,STARLINK-4703,PAYLOAD,2023-02-01 05:32:10,15.08859101,0.0001323,53.2179,337.5813,96.2162,263.8981,0.00043762,6.687e-05,0.0,0 STARLINK-4703,1 53855U 22114AP  23032.23067401  .00006687  00000-0  43762-3 0  9991,2 53855  53.2179 337.5813 0001323  96.2162 263.8981 15.08859101 21479,6917.822,95.436,540.602,538.772,0.0
53855.0,STARLINK-4703,PAYLOAD,2023-02-02 02:12:11,15.08838721,0.0001248,53.2179,333.7162,95.6091,264.5044,6.0398e-05,6.73e-06,0.0,0 STARLINK-4703,1 53855U 22114AP  23033.09180256  .00000673  00000-0  60398-4 0  9994,2 53855  53.2179 333.7162 0001248  95.6091 264.5044 15.08838721 21602,6917.884,95.438,540.613,538.886,0.0
53855.0,STARLINK-4703,PAYLOAD,2023-02-02 05:22:57,15.08842385,0.0001246,53.218,333.1195,93.6204,266.493,0.00019778,2.861e-05,0.0,0 STARLINK-4703,1 53855U 22114AP  23033.22428161  .00002861  00000-0  19778-3 0  9995,2 53855  53.2180 333.1195 0001246  93.6204 266.4930 15.08842385 22164,6917.873,95.437,540.6,538.876,0.0
53855.0,STARLINK-4703,PAYLOAD,2023-02-03 02:02:58,15.08854025,0.0001341,53.2182,329.2545,88.3041,271.8104,0.00067287,0.00010441,0.0,0 STARLINK-4703,1 53855U 22114AP  23034.08540093  .00010441  00000-0  67287-3 0  9990,2 53855  53.2182 329.2545 0001341  88.3041 271.8104 15.08854025 21758,6917.838,95.437,540.63,538.775,0.0
53855.0,STARLINK-4703,PAYLOAD,2023-02-04 05:04:31,15.08853223,0.0001392,53.2187,324.1995,84.5696,275.5455,0.00041804,6.374e-05,0.0,0 STARLINK-4703,1 53855U 22114AP  23035.21147929  .00006374  00000-0  41804-3 0  9994,2 53855  53.2187 324.1995 0001392  84.5696 275.5455 15.08853223 21924,6917.84,95.437,540.668,538.742,0.0
53855.0,STARLINK-4703,PAYLOAD,2023-02-04 20:58:23,15.0884488,0.0001528,53.2173,321.2249,99.794,260.3225,8.9264e-05,1.133e-05,0.0,0 STARLINK-4703,1 53855U 22114AP  23035.87388283  .00001133  00000-0  89264-4 0  9997,2 53855  53.2173 321.2249 0001528  99.7940 260.3225 15.08844880 22567,6917.865,95.437,540.788,538.673,0.0
53855.0,STARLINK-4703,PAYLOAD,2023-02-04 22:33:46,15.08844094,0.0001583,53.2175,320.9274,106.6433,253.4733,7.8341e-05,9.59e-06,0.0,0 STARLINK-4703,1 53855U 22114AP  23035.94012266  .00000959  00000-0  78341-4 0  9999,2 53855  53.2175 320.9274 0001583 106.6433 253.4733 15.08844094 22035,6917.868,95.437,540.828,538.638,0.0
